ONEWEB-0247             
1 48777U 21045L   23301.41317452  .00000205  00000+0  51170-3 0  9994
2 48777  87.8968  90.8812 0001507  68.5362 291.5929 13.15407019117829
ONEWEB-0245             
1 48778U 21045M   23301.40874980  .00000368  00000+0  94457-3 0  9993
2 48778  87.8953  90.8915 0001302  91.2022 268.9258 13.15500226117790
ONEWEB-0229             
1 48779U 21045N   23301.85951860  .00000290  00000+0  73935-3 0  9998
2 48779  87.8953  90.7917 0001822  85.1715 274.9623 13.15202514119019
ONEWEB-0228             
1 48780U 21045P   23301.41604256  .00000150  00000+0  36556-3 0  9999
2 48780  87.8956  90.8600 0001548  87.5513 272.5795 13.15548714117748
ONEWEB-0232             
1 48781U 21045Q   23301.86767858 -.00007593  00000+0 -20293-1 0  9996
2 48781  87.8907  90.8270 0001332  79.5735 280.5545 13.15300098119246
ONEWEB-0231             
1 48782U 21045R   23301.46579630  .00000164  00000+0  40139-3 0  9990
2 48782  87.8964  90.8775 0001545  82.2250 277.9056 13.15500275117760
ONEWEB-0234             
1 48783U 21045S   23301.48828958  .00000150  00000+0  36647-3 0  9997
2 48783  87.8957  90.8518 0001712 146.4613 213.6626 13.15350355119034
ONEWEB-0238             
1 48784U 21045T   23301.42425046  .00000202  00000+0  50147-3 0  9992
2 48784  87.8960  90.8753 0001580  97.7592 262.3717 13.15647563117790
